[{"OBJECT_NAME":"NUSAT-41 (C PAYNE-G)","OBJECT_ID":"2023-084N","EPOCH":"2026-03-09T21:55:54.837696","MEAN_MOTION":15.29680045,"ECCENTRICITY":0.00062175,"INCLINATION":97.5351,"RA_OF_ASC_NODE":204.1011,"ARG_OF_PERICENTER":322.2064,"MEAN_ANOMALY":37.8738,"EPHEMERIS_TYPE":0,"CLASSIFICATION_TYPE":"U","NORAD_CAT_ID":56944,"ELEMENT_SET_NO":999,"REV_AT_EPOCH":15260,"BSTAR":0.00059912824,"MEAN_MOTION_DOT":0.0001718,"MEAN_MOTION_DDOT":0},{"OBJECT_NAME":"STARLINK-34080","OBJECT_ID":"2025-110W","EPOCH":"2026-03-09T03:47:36.322656","MEAN_MOTION":15.30152732,"ECCENTRICITY":0.00011788,"INCLINATION":53.1613,"RA_OF_ASC_NODE":29.0457,"ARG_OF_PERICENTER":71.3532,"MEAN_ANOMALY":288.7597,"EPHEMERIS_TYPE":0,"CLASSIFICATION_TYPE":"U","NORAD_CAT_ID":64116,"ELEMENT_SET_NO":999,"REV_AT_EPOCH":4579,"BSTAR":0.00034707027,"MEAN_MOTION_DOT":9.919e-5,"MEAN_MOTION_DDOT":0}]
